[{"OBJECT_NAME":"STARLINK-4150","OBJECT_ID":"2022-083C","EPOCH":"2026-03-09T14:36:08.275104","MEAN_MOTION":15.08830336,"ECCENTRICITY":0.0001347,"INCLINATION":53.2177,"RA_OF_ASC_NODE":174.4821,"ARG_OF_PERICENTER":106.7574,"MEAN_ANOMALY":253.3566,"EPHEMERIS_TYPE":0,"CLASSIFICATION_TYPE":"U","NORAD_CAT_ID":53134,"ELEMENT_SET_NO":999,"REV_AT_EPOCH":20120,"BSTAR":-8.7874e-5,"MEAN_MOTION_DOT":-1.686e-5,"MEAN_MOTION_DDOT":0},{"OBJECT_NAME":"ELECTRON KICK STAGE R\/B","OBJECT_ID":"2022-127B","EPOCH":"2026-03-09T17:09:40.821984","MEAN_MOTION":14.86457617,"ECCENTRICITY":0.01108806,"INCLINATION":98.1925,"RA_OF_ASC_NODE":123.6736,"ARG_OF_PERICENTER":332.423,"MEAN_ANOMALY":27.1129,"EPHEMERIS_TYPE":0,"CLASSIFICATION_TYPE":"U","NORAD_CAT_ID":54024,"ELEMENT_SET_NO":999,"REV_AT_EPOCH":18462,"BSTAR":0.00041708846,"MEAN_MOTION_DOT":4.056e-5,"MEAN_MOTION_DDOT":0}]
